[{"OBJECT_NAME":"STARLINK-31129","OBJECT_ID":"2023-203G","EPOCH":"2026-03-09T23:11:58.720704","MEAN_MOTION":15.27630951,"ECCENTRICITY":1.444e-5,"INCLINATION":43.002,"RA_OF_ASC_NODE":65.5363,"ARG_OF_PERICENTER":278.4306,"MEAN_ANOMALY":81.6529,"EPHEMERIS_TYPE":0,"CLASSIFICATION_TYPE":"U","NORAD_CAT_ID":58624,"ELEMENT_SET_NO":999,"REV_AT_EPOCH":12360,"BSTAR":0.00087632816,"MEAN_MOTION_DOT":0.00023968,"MEAN_MOTION_DDOT":0},{"OBJECT_NAME":"FLOCK 4G-36","OBJECT_ID":"2025-009BU","EPOCH":"2026-03-09T16:58:27.533568","MEAN_MOTION":15.27209548,"ECCENTRICITY":0.00034736,"INCLINATION":97.4053,"RA_OF_ASC_NODE":151.0513,"ARG_OF_PERICENTER":324.2456,"MEAN_ANOMALY":35.855,"EPHEMERIS_TYPE":0,"CLASSIFICATION_TYPE":"U","NORAD_CAT_ID":62675,"ELEMENT_SET_NO":999,"REV_AT_EPOCH":6370,"BSTAR":0.00051121743,"MEAN_MOTION_DOT":0.00013573,"MEAN_MOTION_DDOT":0}]
